{"type": "FeatureCollection", "features": [ {"type": "Feature", "properties": {"norad_id": 66698, "name": "IRIDE FM4", "group": "last-30-days", "lat": 77.22943686204107, "lon": 37.691782521791055, "alt_km": 508.22165099422, "timestamp": "2025-12-27T09:28:55.182903+00:00", "meta": {"OBJECT_NAME": "IRIDE FM4", "OBJECT_ID": "2025-276AJ", "EPOCH": "2025-12-27T04:00:01.998720", "MEAN_MOTION": 15.1738045, "ECCENTRICITY": 0.0002797, "INCLINATION": 97.4382, "RA_OF_ASC_NODE": 72.6661, "ARG_OF_PERICENTER": 237.0036, "MEAN_ANOMALY": 35.7937, "EPHEMERIS_TYPE": 0, "CLASSIFICATION_TYPE": "U", "NORAD_CAT_ID": 66698, "ELEMENT_SET_NO": 999, "REV_AT_EPOCH": 130, "BSTAR": 0.0024329, "MEAN_MOTION_DOT": 0.0004882, "MEAN_MOTION_DDOT": 0}, "tle": {"line1": "1 66698U 25276AJ  25361.16668980  .00048820  00000+0  24329-2 0  9991", "line2": "2 66698  97.4382  72.6661 0002797 237.0036  35.7937 15.17380450  1306"}}, "geometry": {"type": "Point", "coordinates": [37.691782521791055, 77.22943686204107]}}, {"type": "Feature", "properties": {"norad_id": 66699, "name": "IRIDE FM5", "group": "last-30-days", "lat": 78.72926932817012, "lon": 31.92224173555333, "alt_km": 508.22849051792673, "timestamp": "2025-12-27T09:28:55.182913+00:00", "meta": {"OBJECT_NAME": "IRIDE FM5", "OBJECT_ID": "2025-276AK", "EPOCH": "2025-12-27T02:47:36.407040", "MEAN_MOTION": 15.17441364, "ECCENTRICITY": 0.0003209, "INCLINATION": 97.4398, "RA_OF_ASC_NODE": 72.6217, "ARG_OF_PERICENTER": 236.063, "MEAN_ANOMALY": 124.0299, "EPHEMERIS_TYPE": 0, "CLASSIFICATION_TYPE": "U", "NORAD_CAT_ID": 66699, "ELEMENT_SET_NO": 999, "REV_AT_EPOCH": 430, "BSTAR": 0.00027878, "MEAN_MOTION_DOT": 5.513e-05, "MEAN_MOTION_DDOT": 0}, "tle": {"line1": "1 66699U 25276AK  25361.11639360  .00005513  00000+0  27878-3 0  9992", "line2": "2 66699  97.4398  72.6217 0003209 236.0630 124.0299 15.17441364  4307"}}, "geometry": {"type": "Point", "coordinates": [31.92224173555333, 78.72926932817012]}}, {"type": "Feature", "properties": {"norad_id": 66700, "name": "IRIDE FM6", "group": "last-30-days", "lat": 12.8584842019672, "lon": -105.35218056576093, "alt_km": 510.86023608914184, "timestamp": "2025-12-27T09:28:55.182925+00:00", "meta": {"OBJECT_NAME": "IRIDE FM6", "OBJECT_ID": "2025-276AL", "EPOCH": "2025-12-27T04:00:14.652000", "MEAN_MOTION": 15.18292304, "ECCENTRICITY": 0.0002116, "INCLINATION": 97.4414, "RA_OF_ASC_NODE": 72.7136, "ARG_OF_PERICENTER": 150.4244, "MEAN_ANOMALY": 209.711, "EPHEMERIS_TYPE": 0, "CLASSIFICATION_TYPE": "U", "NORAD_CAT_ID": 66700, "ELEMENT_SET_NO": 999, "REV_AT_EPOCH": 431, "BSTAR": 0.00044629, "MEAN_MOTION_DOT": 9.088e-05, "MEAN_MOTION_DDOT": 0}, "tle": {"line1": "1 66700U 25276AL  25361.16683625  .00009088  00000+0  44629-3 0  9997", "line2": "2 66700  97.4414  72.7136 0002116 150.4244 209.7110 15.18292304  4319"}}, "geometry": {"type": "Point", "coordinates": [-105.35218056576093, 12.8584842019672]}}, {"type": "Feature", "properties": {"norad_id": 66701, "name": "IRIDE FM7", "group": "last-30-days", "lat": 78.67755268934935, "lon": 32.1504594353093, "alt_km": 508.173558273651, "timestamp": "2025-12-27T09:28:55.182935+00:00", "meta": {"OBJECT_NAME": "IRIDE FM7", "OBJECT_ID": "2025-276AM", "EPOCH": "2025-12-27T04:22:34.944096", "MEAN_MOTION": 15.17445659, "ECCENTRICITY": 0.000317, "INCLINATION": 97.4415, "RA_OF_ASC_NODE": 72.6932, "ARG_OF_PERICENTER": 234.4599, "MEAN_ANOMALY": 125.6339, "EPHEMERIS_TYPE": 0, "CLASSIFICATION_TYPE": "U", "NORAD_CAT_ID": 66701, "ELEMENT_SET_NO": 999, "REV_AT_EPOCH": 431, "BSTAR": 0.00026497, "MEAN_MOTION_DOT": 5.237e-05, "MEAN_MOTION_DDOT": 0}, "tle": {"line1": "1 66701U 25276AM  25361.18234889  .00005237  00000+0  26497-3 0  9999", "line2": "2 66701  97.4415  72.6932 0003170 234.4599 125.6339 15.17445659  4312"}}, "geometry": {"type": "Point", "coordinates": [32.1504594353093, 78.67755268934935]}}, {"type": "Feature", "properties": {"norad_id": 66702, "name": "IRIDE FM8", "group": "last-30-days", "lat": 79.43164743257697, "lon": 28.440310613312686, "alt_km": 508.0652250318817, "timestamp": "2025-12-27T09:28:55.182948+00:00", "meta": {"OBJECT_NAME": "IRIDE FM8", "OBJECT_ID": "2025-276AN", "EPOCH": "2025-12-27T04:22:18.812352", "MEAN_MOTION": 15.17451389, "ECCENTRICITY": 0.0002932, "INCLINATION": 97.4391, "RA_OF_ASC_NODE": 72.6844, "ARG_OF_PERICENTER": 241.6428, "MEAN_ANOMALY": 118.451, "EPHEMERIS_TYPE": 0, "CLASSIFICATION_TYPE": "U", "NORAD_CAT_ID": 66702, "ELEMENT_SET_NO": 999, "REV_AT_EPOCH": 431, "BSTAR": 0.00035413, "MEAN_MOTION_DOT": 7.024e-05, "MEAN_MOTION_DDOT": 0}, "tle": {"line1": "1 66702U 25276AN  25361.18216218  .00007024  00000+0  35413-3 0  9990", "line2": "2 66702  97.4391  72.6844 0002932 241.6428 118.4510 15.17451389  4312"}}, "geometry": {"type": "Point", "coordinates": [28.440310613312686, 79.43164743257697]}}, {"type": "Feature", "properties": {"norad_id": 66703, "name": "PELICAN-6", "group": "last-30-days", "lat": 82.35961777195168, "lon": -4.045519512638511, "alt_km": 506.7780878705644, "timestamp": "2025-12-27T09:28:55.182959+00:00", "meta": {"OBJECT_NAME": "PELICAN-6", "OBJECT_ID": "2025-276AP", "EPOCH": "2025-12-27T04:20:46.474080", "MEAN_MOTION": 15.17365225, "ECCENTRICITY": 0.0001247, "INCLINATION": 97.44, "RA_OF_ASC_NODE": 72.6883, "ARG_OF_PERICENTER": 209.8823, "MEAN_ANOMALY": 150.2339, "EPHEMERIS_TYPE": 0, "CLASSIFICATION_TYPE": "U", "NORAD_CAT_ID": 66703, "ELEMENT_SET_NO": 999, "REV_AT_EPOCH": 431, "BSTAR": 0.00027603, "MEAN_MOTION_DOT": 5.445e-05, "MEAN_MOTION_DDOT": 0}, "tle": {"line1": "1 66703U 25276AP  25361.18109345  .00005445  00000+0  27603-3 0  9990", "line2": "2 66703  97.4400  72.6883 0001247 209.8823 150.2339 15.17365225  4316"}}, "geometry": {"type": "Point", "coordinates": [-4.045519512638511, 82.35961777195168]}}, {"type": "Feature", "properties": {"norad_id": 66704, "name": "FLOCK 4H-1", "group": "last-30-days", "lat": 22.9761749134426, "lon": -103.90788344437223, "alt_km": 509.5743387415514, "timestamp": "2025-12-27T09:28:55.182970+00:00", "meta": {"OBJECT_NAME": "FLOCK 4H-1", "OBJECT_ID": "2025-276AQ", "EPOCH": "2025-12-27T00:00:02.998944", "MEAN_MOTION": 15.18128362, "ECCENTRICITY": 0.0002211, "INCLINATION": 97.4372, "RA_OF_ASC_NODE": 72.5289, "ARG_OF_PERICENTER": 159.7465, "MEAN_ANOMALY": 359.2775, "EPHEMERIS_TYPE": 0, "CLASSIFICATION_TYPE": "U", "NORAD_CAT_ID": 66704, "ELEMENT_SET_NO": 999, "REV_AT_EPOCH": 244, "BSTAR": 0.0015977, "MEAN_MOTION_DOT": 0.00032658, "MEAN_MOTION_DDOT": 0}, "tle": {"line1": "1 66704U 25276AQ  25361.00003471  .00032658  00000+0  15977-2 0  9991", "line2": "2 66704  97.4372  72.5289 0002211 159.7465 359.2775 15.18128362  2448"}}, "geometry": {"type": "Point", "coordinates": [-103.90788344437223, 22.9761749134426]}}, {"type": "Feature", "properties": {"norad_id": 66705, "name": "FLOCK 4H-2", "group": "last-30-days", "lat": 19.688636083113686, "lon": -104.40350055225649, "alt_km": 510.3008119524384, "timestamp": "2025-12-27T09:28:55.182980+00:00", "meta": {"OBJECT_NAME": "FLOCK 4H-2", "OBJECT_ID": "2025-276AR", "EPOCH": "2025-12-27T04:02:01.742208", "MEAN_MOTION": 15.1815172, "ECCENTRICITY": 0.0002099, "INCLINATION": 97.4368, "RA_OF_ASC_NODE": 72.6944, "ARG_OF_PERICENTER": 141.4252, "MEAN_ANOMALY": 218.7132, "EPHEMERIS_TYPE": 0, "CLASSIFICATION_TYPE": "U", "NORAD_CAT_ID": 66705, "ELEMENT_SET_NO": 999, "REV_AT_EPOCH": 431, "BSTAR": -0.0011936, "MEAN_MOTION_DOT": -0.00024341, "MEAN_MOTION_DDOT": 0}, "tle": {"line1": "1 66705U 25276AR  25361.16807572 -.00024341  00000+0 -11936-2 0  9996", "line2": "2 66705  97.4368  72.6944 0002099 141.4252 218.7132 15.18151720  4317"}}, "geometry": {"type": "Point", "coordinates": [-104.40350055225649, 19.688636083113686]}}, {"type": "Feature", "properties": {"norad_id": 66706, "name": "FLOCK 4H-3", "group": "last-30-days", "lat": 81.18526980453136, "lon": -49.61038623879966, "alt_km": 507.2758928647645, "timestamp": "2025-12-27T09:28:55.182990+00:00", "meta": {"OBJECT_NAME": "FLOCK 4H-3", "OBJECT_ID": "2025-276AS", "EPOCH": "2025-12-27T04:19:06.118752", "MEAN_MOTION": 15.17529873, "ECCENTRICITY": 0.0003108, "INCLINATION": 97.4438, "RA_OF_ASC_NODE": 72.7058, "ARG_OF_PERICENTER": 226.2186, "MEAN_ANOMALY": 133.8791, "EPHEMERIS_TYPE": 0, "CLASSIFICATION_TYPE": "U", "NORAD_CAT_ID": 66706, "ELEMENT_SET_NO": 999, "REV_AT_EPOCH": 431, "BSTAR": 0.00032969, "MEAN_MOTION_DOT": 6.549e-05, "MEAN_MOTION_DDOT": 0}, "tle": {"line1": "1 66706U 25276AS  25361.17993193  .00006549  00000+0  32969-3 0  9991", "line2": "2 66706  97.4438  72.7058 0003108 226.2186 133.8791 15.17529873  4318"}}, "geometry": {"type": "Point", "coordinates": [-49.61038623879966, 81.18526980453136]}}, {"type": "Feature", "properties": {"norad_id": 66707, "name": "FLOCK 4H-4", "group": "last-30-days", "lat": 67.66354503929931, "lon": 54.34967271240168, "alt_km": 509.9600044483559, "timestamp": "2025-12-27T09:28:55.183000+00:00", "meta": {"OBJECT_NAME": "FLOCK 4H-4", "OBJECT_ID": "2025-276AT", "EPOCH": "2025-12-27T04:25:51.314016", "MEAN_MOTION": 15.17267949, "ECCENTRICITY": 0.0003721, "INCLINATION": 97.442, "RA_OF_ASC_NODE": 72.6932, "ARG_OF_PERICENTER": 231.3222, "MEAN_ANOMALY": 128.7679, "EPHEMERIS_TYPE": 0, "CLASSIFICATION_TYPE": "U", "NORAD_CAT_ID": 66707, "ELEMENT_SET_NO": 999, "REV_AT_EPOCH": 431, "BSTAR": 0.00054969, "MEAN_MOTION_DOT": 0.00010888, "MEAN_MOTION_DDOT": 0}, "tle": {"line1": "1 66707U 25276AT  25361.18462169  .00010888  00000+0  54969-3 0  9992", "line2": "2 66707  97.4420  72.6932 0003721 231.3222 128.7679 15.17267949  4310"}}, "geometry": {"type": "Point", "coordinates": [54.34967271240168, 67.66354503929931]}}]}